
STARLINK-6309           
1 56535U 23065AJ  24328.23452155  .00002191  00000+0  17722-3 0  9990
2 56535  43.0051 265.2923 0001487 290.3281  69.7402 15.02536055 85556
STARLINK-6312           
1 56536U 23065AK  24328.83393277  .00000767  00000+0  71811-4 0  9993
2 56536  43.0017 262.0478 0000431 335.7872  24.2950 15.02540216 85645
STARLINK-6311           
1 56537U 23065AL  24328.23118585 -.00002404  00000+0 -16288-3 0  9993
2 56537  43.0015 265.2589 0001216 287.4794  72.5915 15.02556166 85558
STARLINK-6314           
1 56538U 23065AM  24328.13303664  .00001276  00000+0  10952-3 0  9993
2 56538  43.0013 239.3523 0001140 259.1579 100.9135 15.02538623 85840
STARLINK-6135           
1 56539U 23065AN  24329.15188837 -.00000330  00000+0 -93913-5 0  9992
2 56539  43.0011 260.1243 0001155 273.0595  87.0115 15.02541499 84914
STARLINK-6136           
1 56540U 23065AP  24328.17246513 -.00008219  00000+0 -59331-3 0  9999
2 56540  43.0038 265.6799 0002010 264.1716  95.8897 15.02581852 85549
STARLINK-6249           
1 56541U 23065AQ  24329.14967722 -.00000313  00000+0 -80797-5 0  9999
2 56541  43.0067 260.1149 0001767 267.3386  92.7254 15.02531409 84913
STARLINK-6266           
1 56542U 23065AR  24329.15522282  .00003099  00000+0  24442-3 0  9994
2 56542  43.0034 260.1492 0001492 298.7799  61.2893 15.02532242 84916
STARLINK-6228           
1 56543U 23065AS  24329.14301240  .00000956  00000+0  85802-4 0  9990
2 56543  43.0023 260.0606 0000437 257.5634 102.5160 15.02541188 84915
STARLINK-6226           
1 56544U 23065AT  24328.82060710  .00001547  00000+0  12954-3 0  9993
2 56544  43.0049 261.9424 0001365 264.1249  95.9438 15.02545741 85642
STARLINK-6086           
1 56545U 23065AU  24329.13858154 -.00000092  00000+0  82574-5 0  9998
2 56545  43.0044 260.0255 0001265 269.0389  91.0309 15.02528846 84918
STARLINK-6187           
1 56546U 23065AV  24329.14633441  .00001584  00000+0  13225-3 0  9991
2 56546  43.0042 260.0877 0001165 260.8224  99.2487 15.02546702 84911
STARLINK-6291           
1 56547U 23065AW  24328.87044234  .00000347  00000+0  40753-4 0  9990
2 56547  43.0022 261.4521 0000870 258.9825 101.0919 15.02537579 84877
STARLINK-6244           
1 56548U 23065AX  24328.21121434  .00002721  00000+0  21638-3 0  9995
2 56548  43.0007 265.1049 0001075 192.2848 167.7968 15.02538985 85551
STARLINK-6263           
1 56549U 23065AY  24328.26215809  .00000659  00000+0  63819-4 0  9997
2 56549  43.0030 264.6305 0000818 283.2504  76.8248 15.02531935 85561
STARLINK-6255           
1 56550U 23065AZ  24328.93580833  .00004748  00000+0  36644-3 0  9993
2 56550  43.0004 261.0769 0001649 237.0548 123.0136 15.02523429 84881
STARLINK-6199           
1 56551U 23065BA  24328.19124066  .00000752  00000+0  70721-4 0  9990
2 56551  43.0024 264.9580 0000864 288.4125  71.6624 15.02534609 85553
STARLINK-5802           
1 56552U 23065BB  24328.26437144  .00001814  00000+0  14937-3 0  9999
2 56552  43.0050 264.6455 0001688 259.7632 100.3020 15.02531920 85564
STARLINK-6074           
1 56553U 23065BC  24329.11859635  .00007804  00000+0  59218-3 0  9994
2 56553  43.0019 259.8761 0001387 263.4395  96.6290 15.02530569 84912
STARLINK-6295           
1 56554U 23065BD  24328.85711983  .00000216  00000+0  31069-4 0  9993
2 56554  43.0053 261.3539 0001484 263.1853  96.8820 15.02537945 85654
STARLINK-6252           
1 56555U 23065BE  24328.24772272  .00003433  00000+0  26910-3 0  9997
2 56555  43.0053 264.5205 0001387 270.5317  89.5366 15.02531289 85568
STARLINK-5302           
1 56556U 23065BF  24328.91583364 -.00002779  00000+0 -19079-3 0  9996
2 56556  43.0023 260.9337 0001325 266.7735  93.2955 15.02522545 84880
STARLINK-6265           
1 56557U 23065BG  24328.84269298 -.00000001  00000+0  14997-4 0  9996
2 56557  43.0034 261.2429 0001271 265.1081  94.9616 15.02535782 85651
STARLINK-6286           
1 56558U 23065BH  24328.24218584  .00000781  00000+0  72930-4 0  9998
2 56558  43.0031 264.4759 0001469 244.4819 115.5872 15.02524374 85567
BEIDOU-3 G4             
1 56564U 23066A   24328.75803595 -.00000103  00000+0  00000+0 0  9997
2 56564   1.7275 289.0273 0004511 259.1611 307.9872  1.00271810  5671
STARLINK-30122          
1 56688U 23067A   24327.36477229  .00002320  00000+0  18674-3 0  9994
2 56688  43.0023 321.4683 0000716 286.6213  73.4551 15.02539170 84679
STARLINK-30129          
1 56689U 23067B   24328.35195817 -.00002152  00000+0 -14438-3 0  9994
2 56689  43.0035 315.9805 0000615 272.3161  87.7611 15.02522521 84755
STARLINK-30124          
1 56690U 23067C   24328.94691821  .00000306  00000+0  37744-4 0  9990
2 56690  43.0002 312.7137 0001036 285.9197  74.1531 15.02539091 84842
STARLINK-30036          
1 56692U 23067E   24328.47491565 -.00000557  00000+0 -26146-4 0  9997
2 56692  43.0040 315.2144 0001206 277.2332  82.8374 15.02541267 83642
STARLINK-30067          
1 56693U 23067F   24328.33529772 -.00001214  00000+0 -74770-4 0  9992
2 56693  43.0076 315.8841 0002403 268.0463  92.0104 15.02535718 84756
STARLINK-30126          
1 56694U 23067G   24328.47163466 -.00005670  00000+0 -40550-3 0  9990
2 56694  43.0052 315.1871 0001427 260.0300 100.0382 15.02486245 83920
STARLINK-30121          
1 56695U 23067H   24328.99675176  .00000364  00000+0  42002-4 0  9992
2 56695  43.0015 312.2281 0000727 289.1708  70.9056 15.02539408 84002
STARLINK-30130          
1 56697U 23067K   24328.03942276  .00000560  00000+0  56529-4 0  9994
2 56697  43.0035 317.0989 0000933 243.6283 116.4464 15.02540526 84457
STARLINK-30068          
1 56698U 23067L   24327.31509028 -.00001416  00000+0 -89797-4 0  9995
2 56698  43.0014 308.1310 0001822 236.3487 123.7181 15.02526342 84498
STARLINK-30127          
1 56699U 23067M   24328.32866381 -.00001656  00000+0 -10761-3 0  9996
2 56699  43.0051 315.8353 0001377 278.4062  81.6624 15.02523978 84758
STARLINK-30053          
1 56700U 23067N   24326.06506948  .00000040  00000+0  18054-4 0  9996
2 56700  43.0050 328.0900 0001690 273.3344  86.7305 15.02537610 83567
STARLINK-30125          
1 56701U 23067P   24328.05606696  .00001067  00000+0  94015-4 0  9990
2 56701  43.0060 317.2306 0001327 278.4034  81.6657 15.02544644 84715
STARLINK-30117          
1 56702U 23067Q   24328.02621407 -.00000154  00000+0  36803-5 0  9994
2 56702  42.9997 317.8001 0000899 325.5972  34.4812 15.02539141 84703
STARLINK-30132          
1 56703U 23067R   24327.05557882  .00000143  00000+0  25630-4 0  9994
2 56703  43.0027 322.6145 0000851 246.8973 113.1779 15.02538323 84569
STARLINK-30066          
1 56704U 23067S   24328.43162998  .00001268  00000+0  10893-3 0  9991
2 56704  43.0041 314.8686 0000663 286.0391  74.0378 15.02540112 84772
STARLINK-30080          
1 56705U 23067T   24328.97371935 -.00004505  00000+0 -31852-3 0  9991
2 56705  42.9993 299.1454 0000891 158.1062 201.9818 15.02549495 84157
STARLINK-30079          
1 56706U 23067U   24327.04892006  .00000061  00000+0  19556-4 0  9995
2 56706  43.0047 322.5711 0001265 266.9902  93.0796 15.02535031 84565
STARLINK-30070          
1 56707U 23067V   24326.98576799  .00001039  00000+0  91993-4 0  9997
2 56707  43.0030 322.9573 0001433 256.8491 103.2192 15.02538927 84556
STARLINK-30071          
1 56708U 23067W   24328.03609078  .00002622  00000+0  20906-3 0  9997
2 56708  43.0031 317.0741 0001782 276.5277  83.5363 15.02537593 84714
STARLINK-30085          
1 56709U 23067X   24328.30866150  .00002082  00000+0  16910-3 0  9994
2 56709  43.0020 315.6763 0000963 246.8189 113.2552 15.02547028 84493
ONEWEB-0561             
1 56710U 23068A   24328.21885162  .00000144  00000+0  32307-3 0  9996
2 56710  87.9272  28.0784 0002462  92.1629 267.9786 13.20769153 74135
ONEWEB-0668             
1 56711U 23068B   24328.49147900  .00000200  00000+0  48973-3 0  9997
2 56711  87.9078 342.4634 0001440 111.1567 248.9717 13.16594380 76683
ONEWEB-0676             
1 56712U 23068C   24328.09170066  .00000064  00000+0  13439-3 0  9990
2 56712  87.9082 342.5610 0002385  92.6335 267.5069 13.16592656 76556
ONEWEB-0677             
1 56713U 23068D   24328.20779448 -.00001127  00000+0 -28032-2 0  9990
2 56713  87.9278  28.0539 0002370 106.2519 253.8876 13.20765481 74432
ONEWEB-0678             
1 56714U 23068E   24329.11031764  .00000142  00000+0  34418-3 0  9994
2 56714  87.9096  12.6590 0001852  85.5957 274.5384 13.15546922 75038
ONEWEB-0679             
1 56715U 23068F   24328.51681367  .00000040  00000+0  70919-4 0  9992
2 56715  87.9081 342.4747 0002152 109.9236 250.2127 13.16595225 77338
ONEWEB-0680             
1 56716U 23068G   24328.11926301  .00000055  00000+0  10230-3 0  9994
2 56716  87.9288 357.7739 0001584 118.6153 241.5140 13.21825484 75651
ONEWEB-0681             
1 56717U 23068H   24328.50798642  .00000087  00000+0  17967-3 0  9992
2 56717  87.9308 357.6812 0002921 100.9172 259.2291 13.21828362 76390
ONEWEB-0682             
1 56718U 23068J   24328.14771478 -.00000022  00000+0 -92097-4 0  9990
2 56718  87.9093  12.8871 0001721 114.8641 245.2669 13.15548087 74375
ONEWEB-0683             
1 56719U 23068K   24328.70150736 -.00000134  00000+0 -38896-3 0  9991
2 56719  87.9092  12.7492 0001720 107.3062 252.8257 13.15546632 74412
ONEWEB-0684             
1 56720U 23068L   24328.17703654  .00000065  00000+0  13770-3 0  9992
2 56720  87.9065  12.9224 0001669  47.7770 312.3502 13.15547380 74173
ONEWEB-0686             
1 56721U 23068M   24328.12653373  .00000182  00000+0  44270-3 0  9999
2 56721  87.9083 342.5892 0001502  99.8440 260.2861 13.16594868 76574
ONEWEB-0694             
1 56722U 23068N   24328.09322881  .00000086  00000+0  19019-3 0  9999
2 56722  87.9080 342.5163 0001763 109.2694 250.8627 13.16592507 76628
